[{"OBJECT_NAME":"STARLINK-6036","OBJECT_ID":"2023-078AK","EPOCH":"2026-03-09T22:06:21.683520","MEAN_MOTION":14.98330343,"ECCENTRICITY":0.00027777,"INCLINATION":70.0007,"RA_OF_ASC_NODE":343.9244,"ARG_OF_PERICENTER":269.757,"MEAN_ANOMALY":90.3271,"EPHEMERIS_TYPE":0,"CLASSIFICATION_TYPE":"U","NORAD_CAT_ID":56800,"ELEMENT_SET_NO":999,"REV_AT_EPOCH":15271,"BSTAR":-3.3799051e-5,"MEAN_MOTION_DOT":-4.96e-6,"MEAN_MOTION_DDOT":0},{"OBJECT_NAME":"DMSP 5D-2 F13 DEB","OBJECT_ID":"1995-015CP","EPOCH":"2026-03-07T12:11:36.379680","MEAN_MOTION":14.97633156,"ECCENTRICITY":0.00060588,"INCLINATION":98.7878,"RA_OF_ASC_NODE":156.2683,"ARG_OF_PERICENTER":182.3212,"MEAN_ANOMALY":177.798,"EPHEMERIS_TYPE":0,"CLASSIFICATION_TYPE":"U","NORAD_CAT_ID":40500,"ELEMENT_SET_NO":999,"REV_AT_EPOCH":57139,"BSTAR":0.013984163,"MEAN_MOTION_DOT":0.00167441,"MEAN_MOTION_DDOT":0}]
